OBJECT_NAME,OBJECT_ID,EPOCH,MEAN_MOTION,ECCENTRICITY,INCLINATION,RA_OF_ASC_NODE,ARG_OF_PERICENTER,MEAN_ANOMALY,EPHEMERIS_TYPE,CLASSIFICATION_TYPE,NORAD_CAT_ID,ELEMENT_SET_NO,REV_AT_EPOCH,BSTAR,MEAN_MOTION_DOT,MEAN_MOTION_DDOT
ONEWEB-0132,2020-100W,2026-07-11T09:10:44.425632,13.12442934,.0001911,87.8960,345.8597,100.0917,260.0427,0,U,47278,999,26775,-.11384E-2,-.397E-5,0
ONEWEB-0133,2020-100X,2026-07-11T11:24:43.339104,13.12444562,.0001796,87.8971,345.8201,99.2244,260.9088,0,U,47279,999,26792,.20789E-3,.88E-6,0
ONEWEB-0134,2020-100Y,2026-07-10T09:04:03.828576,13.12442246,.00019881,87.8967,346.0354,102.4100,257.7251,0,U,47280,999,26775,-.9595864E-3,-.332E-5,0
ONEWEB-0135,2020-100Z,2026-07-11T11:49:19.655904,13.12442919,.0001962,87.8957,345.8335,105.1217,255.0129,0,U,47281,999,26792,.11919E-2,.442E-5,0
ONEWEB-0136,2020-100AA,2026-07-11T10:26:22.555392,13.12441204,.0001949,87.8970,345.8284,104.3305,255.8040,0,U,47282,999,26784,.21413E-3,.9E-6,0
ONEWEB-0137,2020-100AB,2026-07-11T11:15:09.760608,13.12444689,.0001847,87.8970,345.8331,91.7151,268.4189,0,U,47283,999,26775,-.38914E-3,-.127E-5,0
ONEWEB-0138,2020-100AC,2026-07-11T08:53:40.164864,13.12441773,.0002003,87.8969,345.8569,100.0886,260.0468,0,U,47284,999,26782,-.8639E-3,-.298E-5,0
ONEWEB-0139,2020-100AD,2026-07-11T11:42:13.168224,13.12443353,.0001831,87.8965,345.8199,96.1094,264.0243,0,U,47285,999,26791,.12504E-2,.463E-5,0
ONEWEB-0140,2020-100AE,2026-07-11T08:46:21.014400,13.12441458,.000168,87.8970,345.8351,100.1574,259.9744,0,U,47286,999,26786,-.46702E-3,-.155E-5,0
ONEWEB-0141,2020-100AF,2026-07-11T11:41:48.511392,13.12443319,.0001974,87.8971,345.8162,87.3735,272.7619,0,U,47287,999,26786,.11725E-2,.435E-5,0
ONEWEB-0142,2020-100AG,2026-07-11T11:25:07.923360,13.12445074,.0002146,87.8958,345.8381,88.9073,271.2302,0,U,47288,999,26785,.24106E-3,.99E-6,0
ONEWEB-0143,2020-100AH,2026-07-11T11:39:34.225056,13.12443966,.0001821,87.8962,345.8363,94.7783,265.3553,0,U,47289,999,26783,.85173E-3,.319E-5,0
ONEWEB-0144,2020-100AJ,2026-07-11T09:08:18.356064,13.12442496,.0002187,87.8965,345.8322,98.7383,261.3994,0,U,47290,999,26774,-.96793E-3,-.335E-5,0
ONEWEB-0145,2020-100AK,2026-07-11T12:06:24.257088,13.12442405,.0002466,87.8948,345.8316,97.9263,262.2145,0,U,47291,999,26795,.7475E-3,.282E-5,0
ONEWEB-0146,2020-100AL,2026-07-11T10:11:44.835072,13.12442098,.0001517,87.8968,345.8423,96.6670,263.4631,0,U,47292,999,26785,.93281E-3,.348E-5,0
ONEWEB-0147,2020-100AM,2026-07-11T11:12:43.617600,13.12444109,.0001875,87.8966,345.8158,100.1861,259.9479,0,U,47293,999,26775,-.55907E-3,-.188E-5,0
ONEWEB-0115,2021-025A,2026-07-11T07:46:33.242304,13.13471500,.0001914,87.9015,315.4217,101.4397,258.6947,0,U,48042,999,25676,.68443E-3,.263E-5,0
ONEWEB-0152,2021-025B,2026-07-10T06:30:19.867392,13.13498083,.00024601,87.9022,315.6270,161.4675,198.6544,0,U,48043,999,25658,-.12405679E-1,-.4517E-4,0
ONEWEB-0153,2021-025C,2026-07-10T07:48:20.467296,13.13470190,.00019792,87.8973,315.6175,97.3585,262.7769,0,U,48044,999,25658,.71014234E-3,.272E-5,0
ONEWEB-0154,2021-025D,2026-07-11T07:29:30.717312,13.13470367,.0001832,87.8990,315.4202,103.7282,256.4051,0,U,48045,999,25667,.11174E-3,.54E-6,0
ONEWEB-0116,2021-025E,2026-07-11T06:35:52.903968,13.13469109,.0001751,87.8981,315.4260,106.1352,253.9970,0,U,48046,999,25681,.15608E-3,.7E-6,0
ONEWEB-0150,2021-025F,2026-07-11T07:51:27.696096,13.13469151,.0001727,87.8993,315.4126,90.8200,269.3127,0,U,48047,999,25671,.10885E-2,.41E-5,0
ONEWEB-0107,2021-025G,2026-07-11T07:53:54.496608,13.13472530,.0002109,87.8984,315.4079,101.1357,259.0009,0,U,48048,999,25669,.10638E-2,.401E-5,0
ONEWEB-0101,2021-025H,2026-07-10T07:14:13.005888,13.13471071,.00020299,87.8970,315.6259,103.1896,256.9460,0,U,48049,999,25653,-.78888948E-3,-.275E-5,0
ONEWEB-0113,2021-025J,2026-07-11T07:24:10.384992,13.13891749,.0001879,87.8977,315.3328,94.6712,265.4632,0,U,48050,999,25677,-.35563E-3,-.118E-5,0
ONEWEB-0112,2021-025K,2026-07-09T08:29:06.899712,13.13468878,.0002128,87.8982,315.7990,105.2632,254.8733,0,U,48051,999,25650,.41124082E-3,.163E-5,0
ONEWEB-0156,2021-025L,2026-07-10T06:37:39.137952,13.13471323,.00020182,87.8984,315.6247,98.9149,261.2209,0,U,48052,999,25660,.15468177E-3,.69E-6,0
ONEWEB-0161,2021-025M,2026-07-11T07:36:49.324320,13.13469212,.0001928,87.8990,315.4191,95.6946,264.4403,0,U,48053,999,25667,.39556E-3,.157E-5,0
ONEWEB-0158,2021-025N,2026-07-09T07:06:13.820256,13.13463100,.00018721,87.8981,315.8194,104.2676,255.8661,0,U,48054,999,25653,-.30557545E-2,-.1103E-4,0
ONEWEB-0157,2021-025P,2026-07-11T07:14:52.979712,13.13471832,.0002401,87.8976,315.4250,98.8782,261.2619,0,U,48055,999,25673,-.78279E-3,-.273E-5,0
