ONEWEB-0132             
1 47278U 20100W   26192.38245863 -.00000397  00000+0 -11384-2 0  9999
2 47278  87.8960 345.8597 0001911 100.0917 260.0427 13.12442934267750
ONEWEB-0133             
1 47279U 20100X   26192.47550161  .00000088  00000+0  20789-3 0  9995
2 47279  87.8971 345.8201 0001796  99.2244 260.9088 13.12444562267928
ONEWEB-0134             
1 47280U 20100Y   26191.37782209 -.00000332  00000+0 -95959-3 0  9990
2 47280  87.8967 346.0354 0001988 102.4100 257.7251 13.12442246267752
ONEWEB-0135             
1 47281U 20100Z   26192.49258861  .00000442  00000+0  11919-2 0  9990
2 47281  87.8957 345.8335 0001962 105.1217 255.0129 13.12442919267920
ONEWEB-0136             
1 47282U 20100AA  26192.43498328  .00000090  00000+0  21413-3 0  9999
2 47282  87.8970 345.8284 0001949 104.3305 255.8040 13.12441204267840
ONEWEB-0137             
1 47283U 20100AB  26192.46886297 -.00000127  00000+0 -38914-3 0  9996
2 47283  87.8970 345.8331 0001847  91.7151 268.4189 13.12444689267753
ONEWEB-0138             
1 47284U 20100AC  26192.37060376 -.00000298  00000+0 -86390-3 0  9999
2 47284  87.8969 345.8569 0002003 100.0886 260.0468 13.12441773267826
ONEWEB-0139             
1 47285U 20100AD  26192.48765241  .00000463  00000+0  12504-2 0  9992
2 47285  87.8965 345.8199 0001831  96.1094 264.0243 13.12443353267917
ONEWEB-0140             
1 47286U 20100AE  26192.36552100 -.00000155  00000+0 -46702-3 0  9996
2 47286  87.8970 345.8351 0001680 100.1574 259.9744 13.12441458267862
ONEWEB-0141             
1 47287U 20100AF  26192.48736703  .00000435  00000+0  11725-2 0  9998
2 47287  87.8971 345.8162 0001974  87.3735 272.7619 13.12443319267867
ONEWEB-0142             
1 47288U 20100AG  26192.47578615  .00000099  00000+0  24106-3 0  9998
2 47288  87.8958 345.8381 0002146  88.9073 271.2302 13.12445074267852
ONEWEB-0143             
1 47289U 20100AH  26192.48581279  .00000319  00000+0  85173-3 0  9996
2 47289  87.8962 345.8363 0001821  94.7783 265.3553 13.12443966267838
ONEWEB-0144             
1 47290U 20100AJ  26192.38076801 -.00000335  00000+0 -96793-3 0  9997
2 47290  87.8965 345.8322 0002187  98.7383 261.3994 13.12442496267746
ONEWEB-0145             
1 47291U 20100AK  26192.50444742  .00000282  00000+0  74750-3 0  9993
2 47291  87.8948 345.8316 0002466  97.9263 262.2145 13.12442405267950
ONEWEB-0146             
1 47292U 20100AL  26192.42482448  .00000348  00000+0  93281-3 0  9993
2 47292  87.8968 345.8423 0001517  96.6670 263.4631 13.12442098267856
ONEWEB-0147             
1 47293U 20100AM  26192.46717150 -.00000188  00000+0 -55907-3 0  9996
2 47293  87.8966 345.8158 0001875 100.1861 259.9479 13.12444109267754
ONEWEB-0115             
1 48042U 21025A   26192.32399586  .00000263  00000+0  68443-3 0  9991
2 48042  87.9015 315.4217 0001914 101.4397 258.6947 13.13471500256765
ONEWEB-0152             
1 48043U 21025B   26191.27106328 -.00004517  00000+0 -12406-1 0  9999
2 48043  87.9022 315.6270 0002460 161.4675 198.6544 13.13498083256588
ONEWEB-0153             
1 48044U 21025C   26191.32523689  .00000272  00000+0  71014-3 0  9993
2 48044  87.8973 315.6175 0001979  97.3585 262.7769 13.13470190256589
ONEWEB-0154             
1 48045U 21025D   26192.31216108  .00000054  00000+0  11174-3 0  9998
2 48045  87.8990 315.4202 0001832 103.7282 256.4051 13.13470367256672
ONEWEB-0116             
1 48046U 21025E   26192.27491787  .00000070  00000+0  15608-3 0  9996
2 48046  87.8981 315.4260 0001751 106.1352 253.9970 13.13469109256812
ONEWEB-0150             
1 48047U 21025F   26192.32740389  .00000410  00000+0  10885-2 0  9997
2 48047  87.8993 315.4126 0001727  90.8200 269.3127 13.13469151256712
ONEWEB-0107             
1 48048U 21025G   26192.32910297  .00000401  00000+0  10638-2 0  9991
2 48048  87.8984 315.4079 0002109 101.1357 259.0009 13.13472530256691
ONEWEB-0101             
1 48049U 21025H   26191.30153942 -.00000275  00000+0 -78889-3 0  9999
2 48049  87.8970 315.6259 0002029 103.1896 256.9460 13.13471071256539
ONEWEB-0113             
1 48050U 21025J   26192.30845353 -.00000118  00000+0 -35563-3 0  9994
2 48050  87.8977 315.3328 0001879  94.6712 265.4632 13.13891749256775
ONEWEB-0112             
1 48051U 21025K   26190.35355208  .00000163  00000+0  41124-3 0  9991
2 48051  87.8982 315.7990 0002128 105.2632 254.8733 13.13468878256507
ONEWEB-0156             
1 48052U 21025L   26191.27614743  .00000069  00000+0  15468-3 0  9993
2 48052  87.8984 315.6247 0002018  98.9149 261.2209 13.13471323256603
ONEWEB-0161             
1 48053U 21025M   26192.31723755  .00000157  00000+0  39556-3 0  9996
2 48053  87.8990 315.4191 0001928  95.6946 264.4403 13.13469212256677
ONEWEB-0158             
1 48054U 21025N   26190.29599329 -.00001103  00000+0 -30558-2 0  9996
2 48054  87.8981 315.8194 0001872 104.2676 255.8661 13.13463100256535
ONEWEB-0157             
1 48055U 21025P   26192.30200208 -.00000273  00000+0 -78279-3 0  9996
2 48055  87.8976 315.4250 0002401  98.8782 261.2619 13.13471832256731
